[{"OBJECT_NAME":"PUJIANG 2 (PJ-2)","OBJECT_ID":"2022-031B","EPOCH":"2026-03-09T23:59:30.994656","MEAN_MOTION":14.94193409,"ECCENTRICITY":0.00120718,"INCLINATION":97.86,"RA_OF_ASC_NODE":254.4415,"ARG_OF_PERICENTER":164.7982,"MEAN_ANOMALY":195.3603,"EPHEMERIS_TYPE":0,"CLASSIFICATION_TYPE":"U","NORAD_CAT_ID":52151,"ELEMENT_SET_NO":999,"REV_AT_EPOCH":21498,"BSTAR":0.00020001428,"MEAN_MOTION_DOT":2.087e-5,"MEAN_MOTION_DDOT":0},{"OBJECT_NAME":"COSMOS 2535","OBJECT_ID":"2019-039A","EPOCH":"2026-03-10T00:12:21.928896","MEAN_MOTION":14.91716914,"ECCENTRICITY":0.00085444,"INCLINATION":97.5892,"RA_OF_ASC_NODE":100.9236,"ARG_OF_PERICENTER":173.2991,"MEAN_ANOMALY":186.8344,"EPHEMERIS_TYPE":0,"CLASSIFICATION_TYPE":"U","NORAD_CAT_ID":44421,"ELEMENT_SET_NO":999,"REV_AT_EPOCH":36185,"BSTAR":0.00020436382,"MEAN_MOTION_DOT":2.004e-5,"MEAN_MOTION_DDOT":0}]
